[{"OBJECT_NAME":"KSLV-II DUMMY","OBJECT_ID":"2022-065B","EPOCH":"2026-03-09T22:00:35.212608","MEAN_MOTION":14.58674348,"ECCENTRICITY":0.00080394,"INCLINATION":98.216,"RA_OF_ASC_NODE":209.7633,"ARG_OF_PERICENTER":354.0067,"MEAN_ANOMALY":6.1035,"EPHEMERIS_TYPE":0,"CLASSIFICATION_TYPE":"U","NORAD_CAT_ID":52895,"ELEMENT_SET_NO":999,"REV_AT_EPOCH":19788,"BSTAR":2.9507622e-5,"MEAN_MOTION_DOT":9.1e-7,"MEAN_MOTION_DDOT":0},{"OBJECT_NAME":"UNKNOWN","OBJECT_ID":"","EPOCH":"2026-03-06T22:22:03.173088","MEAN_MOTION":14.58249515,"ECCENTRICITY":0.0044901,"INCLINATION":67.7611,"RA_OF_ASC_NODE":45.99,"ARG_OF_PERICENTER":288.9362,"MEAN_ANOMALY":100.966,"EPHEMERIS_TYPE":0,"CLASSIFICATION_TYPE":"U","NORAD_CAT_ID":81838,"ELEMENT_SET_NO":999,"REV_AT_EPOCH":64560,"BSTAR":0.0019027,"MEAN_MOTION_DOT":8.849e-5,"MEAN_MOTION_DDOT":0}]
